YUNHAI-1 03             
1 53877U 22115A   26194.86515752  .00000233  00000+0  10176-3 0  9997
2 53877  98.5543 192.6748 0004248 343.7409  16.3638 14.32735925199334
CENTISPACE-1 S5         
1 54020U 22126A   26194.79757094  .00000388  00000+0  11173-3 0  9998
2 54020  54.9989 106.4700 0014439 121.8167 238.4235 14.63055203200932
CENTISPACE-1 S6         
1 54021U 22126B   26194.80408532  .00000280  00000+0  92067-4 0  9994
2 54021  54.9991 108.4341 0016236 122.9329 237.3229 14.62315511200894
OTB-3-GAZELLE           
1 54023U 22127A   26194.55372126  .00000071  00000+0  34218-4 0  9990
2 54023  98.3959 185.8583 0014391 107.4180 252.8584 14.42683655198169
ASO-S                   
1 54029U 22129A   26194.85219336  .00000102  00000+0  36234-4 0  9999
2 54029  98.2755 199.5517 0014675  16.2755 343.8909 14.52074445199296
HJ-2E                   
1 54035U 22132A   26194.90280286  .00004630  00000+0  20094-3 0  9994
2 54035  97.3799 198.8051 0018022 275.5508  84.3673 15.22684178208487
COSMOS 2561             
1 54109U 22137A   26194.85444315  .00008715  00000+0  14438-3 0  9993
2 54109  96.9176 252.8667 0008166 286.8720  73.1638 15.52351513210483
GONETS-M 23             
1 54150U 22139A   26194.82676383  .00000008  00000+0 -16452-4 0  9997
2 54150  82.5093 331.7385 0022082 161.3959 198.7933 12.42891870168953
GONETS-M 24             
1 54151U 22139B   26194.88032277  .00000002  00000+0 -56238-4 0  9992
2 54151  82.5010 330.7468 0017151 170.8799 189.2596 12.42892450168968
GONETS-M 25             
1 54152U 22139C   26194.86675392 -.00000002  00000+0 -82955-4 0  9998
2 54152  82.5076 331.4560 0021084 169.9080 190.2427 12.42890804168960
SKIF-D                  
1 54153U 22139D   26194.03881080  .00000008  00000+0  00000+0 0  9991
2 54153  89.9493  96.6607 0007434 188.4298 171.6266  5.00430161 65408
MATS                    
1 54227U 22147A   26194.50316979  .00001383  00000+0  10040-3 0  9990
2 54227  97.6828 195.9884 0014122 108.3401 251.9363 15.05496478201723
EOS-6 (OCEANSAT-3)      
1 54361U 22158A   26194.85428802  .00000106  00000+0  41056-4 0  9992
2 54361  98.3550 292.6956 0000347 139.6394 220.4824 14.46983938191692
DONGPO 09               
1 54685U 22167D   26194.84838156  .00006932  00000+0  19449-3 0  9990
2 54685  97.6911   7.0596 0002877  55.7509 304.4007 15.36914287199547
DONGPO 08               
1 54686U 22167E   26194.87607867  .00006426  00000+0  19666-3 0  9996
2 54686  97.6874   4.1391 0009296  77.9025 282.3258 15.34167498199418
2022-167F               
1 54687U 22167F   26194.82614588  .01035522  73395-3  75411-3 0  9991
2 54687  97.5966  26.4245 0007251 245.8008 114.2521 16.15905133201091
DONGPO 10               
1 54689U 22167H   26194.86858593  .00006553  00000+0  19559-3 0  9994
2 54689  97.6956   6.1460 0005069  32.5283 327.6270 15.34983911199455
JILIN-1 GAOFEN 03D48    
1 54695U 22167P   26194.85276293  .00006503  00000+0  18927-3 0  9994
2 54695  97.6891   5.5169 0006565  34.7173 325.4497 15.35774530199489
STAR VIBE               
1 55009U 23001A   26194.82447043  .00008848  00000+0  20042-3 0  9997
2 55009  97.3162 259.4067 0005634  35.5486 324.6136 15.43329158196339
BRO-8                   
1 55011U 23001C   26194.84194641  .00022226  00000+0  38796-3 0  9996
2 55011  97.3193 260.4384 0004995  44.9279 315.2376 15.50693793196332
CONNECTA T1.2           
1 55012U 23001D   26194.73858514  .00026310  00000+0  42576-3 0  9990
2 55012  97.3255 265.9347 0001473 317.4745  42.6393 15.52802515196667
BIRKELAND               
1 55015U 23001G   26194.84685931  .00005673  00000+0  14178-3 0  9992
2 55015  97.3340 262.8909 0006570  25.5741 334.5830 15.40524061196451
ION SCV-008             
1 55051U 23001AU  26194.81297517  .00003618  00000+0  13153-3 0  9997
2 55051  97.5722 291.5824 0013175 278.6022  81.3725 15.28870101195403
ION SCV-007             
1 55060U 23001BD  26194.74420567  .00000190  00000+0  33758-4 0  9998
2 55060  97.8994 257.2308 0011012 247.3435 112.6611 14.77575418190179
HUYGENS                 
1 55093U 23001CN  26194.84694414  .00005611  00000+0  14019-3 0  9990
2 55093  97.3243 262.0860 0008572 358.0755   2.0457 15.40523222196472
SHARJAHSAT-1            
1 55104U 23001CZ  26194.84715628  .00012700  00000+0  22747-3 0  9998
2 55104  97.3160 263.9996 0004933  25.4258 334.7236 15.50084043196624
HORUS 1                 
1 55690U 23025A   26194.88661027  .00003272  00000+0  13990-3 0  9995
2 55690  97.3458 268.9196 0002869 115.0961 245.0574 15.23530001188118
HORUS 2                 
1 55844U 23032A   26194.85630167  .00003158  00000+0  13592-3 0  9993
2 55844  97.3530 269.7206 0000992 134.4176 225.7142 15.23336058185545
GLOBAL-19               
1 55982U 23041B   26194.00355035  .00009634  00000+0  25300-3 0  9996
2 55982  42.0024  51.2695 0009325 204.1950 155.8453 15.38645913185900
ION SCV-010             
1 56192U 23054Q   26194.71168429  .00002762  00000+0  10862-3 0  9993
2 56192  97.3749  83.8738 0014553 108.9012 251.3806 15.26416574180241
TELEOS-2                
1 56310U 23057C   26194.08340753  .00003291  00000+0  22342-3 0  9994
2 56310   9.9892  15.6203 0000941 275.2393  84.7713 14.96416588176686
