OBJECT_NAME,OBJECT_ID,EPOCH,MEAN_MOTION,ECCENTRICITY,INCLINATION,RA_OF_ASC_NODE,ARG_OF_PERICENTER,MEAN_ANOMALY,EPHEMERIS_TYPE,CLASSIFICATION_TYPE,NORAD_CAT_ID,ELEMENT_SET_NO,REV_AT_EPOCH,BSTAR,MEAN_MOTION_DOT,MEAN_MOTION_DDOT
YUNHAI-1 03,2022-115A,2026-07-13T20:45:49.609728,14.32735925,.0004248,98.5543,192.6748,343.7409,16.3638,0,U,53877,999,19933,.10176E-3,.233E-5,0
CENTISPACE-1 S5,2022-126A,2026-07-13T19:08:30.129216,14.63055203,.0014439,54.9989,106.4700,121.8167,238.4235,0,U,54020,999,20093,.11173E-3,.388E-5,0
CENTISPACE-1 S6,2022-126B,2026-07-13T19:17:52.971648,14.62315511,.0016236,54.9991,108.4341,122.9329,237.3229,0,U,54021,999,20089,.92067E-4,.28E-5,0
OTB-3-GAZELLE,2022-127A,2026-07-13T13:17:21.516864,14.42683655,.0014391,98.3959,185.8583,107.4180,252.8584,0,U,54023,999,19816,.34218E-4,.71E-6,0
ASO-S,2022-129A,2026-07-13T20:27:09.506304,14.52074445,.0014675,98.2755,199.5517,16.2755,343.8909,0,U,54029,999,19929,.36234E-4,.102E-5,0
HJ-2E,2022-132A,2026-07-13T21:40:02.167104,15.22684178,.0018022,97.3799,198.8051,275.5508,84.3673,0,U,54035,999,20848,.20094E-3,.463E-4,0
COSMOS 2561,2022-137A,2026-07-13T20:30:23.888160,15.52351513,.0008166,96.9176,252.8667,286.8720,73.1638,0,U,54109,999,21048,.14438E-3,.8715E-4,0
GONETS-M 23,2022-139A,2026-07-13T19:50:32.394912,12.42891870,.0022082,82.5093,331.7385,161.3959,198.7933,0,U,54150,999,16895,-.16452E-4,.8E-7,0
GONETS-M 24,2022-139B,2026-07-13T21:07:39.887328,12.42892450,.0017151,82.5010,330.7468,170.8799,189.2596,0,U,54151,999,16896,-.56238E-4,.2E-7,0
GONETS-M 25,2022-139C,2026-07-13T20:48:07.538688,12.42890804,.0021084,82.5076,331.4560,169.9080,190.2427,0,U,54152,999,16896,-.82955E-4,-.2E-7,0
SKIF-D,2022-139D,2026-07-13T00:55:53.253120,5.00430161,.00074342,89.9493,96.6607,188.4298,171.6266,0,U,54153,999,6540,0,.8E-7,0
MATS,2022-147A,2026-07-13T12:04:33.869856,15.05496478,.00141224,97.6828,195.9884,108.3401,251.9363,0,U,54227,999,20172,.10040349E-3,.1383E-4,0
EOS-6 (OCEANSAT-3),2022-158A,2026-07-13T20:30:10.484928,14.46983938,.0000347,98.3550,292.6956,139.6394,220.4824,0,U,54361,999,19169,.41056E-4,.106E-5,0
DONGPO 09,2022-167D,2026-07-13T20:21:40.166784,15.36914287,.0002877,97.6911,7.0596,55.7509,304.4007,0,U,54685,999,19954,.19449E-3,.6932E-4,0
DONGPO 08,2022-167E,2026-07-13T21:01:33.197088,15.34167498,.0009296,97.6874,4.1391,77.9025,282.3258,0,U,54686,999,19941,.19666E-3,.6426E-4,0
2022-167F,2022-167F,2026-07-13T19:49:39.004032,16.15905133,.0007251,97.5966,26.4245,245.8008,114.2521,0,U,54687,999,20109,.75411E-3,.1035522E-1,.73395E-3
DONGPO 10,2022-167H,2026-07-13T20:50:45.824352,15.34983911,.0005069,97.6956,6.1460,32.5283,327.6270,0,U,54689,999,19945,.19559E-3,.6553E-4,0
JILIN-1 GAOFEN 03D48,2022-167P,2026-07-13T20:27:58.717152,15.35774530,.0006565,97.6891,5.5169,34.7173,325.4497,0,U,54695,999,19948,.18927E-3,.6503E-4,0
STAR VIBE,2023-001A,2026-07-13T19:47:14.245152,15.43329158,.0005634,97.3162,259.4067,35.5486,324.6136,0,U,55009,999,19633,.20042E-3,.8848E-4,0
BRO-8,2023-001C,2026-07-13T20:12:24.169824,15.50693793,.0004995,97.3193,260.4384,44.9279,315.2376,0,U,55011,999,19633,.38796E-3,.22226E-3,0
CONNECTA T1.2,2023-001D,2026-07-13T17:43:33.756096,15.52802515,.0001473,97.3255,265.9347,317.4745,42.6393,0,U,55012,999,19666,.42576E-3,.2631E-3,0
BIRKELAND,2023-001G,2026-07-13T20:19:28.644384,15.40524061,.000657,97.3340,262.8909,25.5741,334.5830,0,U,55015,999,19645,.14178E-3,.5673E-4,0
ION SCV-008,2023-001AU,2026-07-13T19:30:41.054688,15.28870101,.0013175,97.5722,291.5824,278.6022,81.3725,0,U,55051,999,19540,.13153E-3,.3618E-4,0
ION SCV-007,2023-001BD,2026-07-13T17:51:39.369888,14.77575418,.0011012,97.8994,257.2308,247.3435,112.6611,0,U,55060,999,19017,.33758E-4,.19E-5,0
HUYGENS,2023-001CN,2026-07-13T20:19:35.973696,15.40523222,.0008572,97.3243,262.0860,358.0755,2.0457,0,U,55093,999,19647,.14019E-3,.5611E-4,0
SHARJAHSAT-1,2023-001CZ,2026-07-13T20:19:54.302592,15.50084043,.0004933,97.3160,263.9996,25.4258,334.7236,0,U,55104,999,19662,.22747E-3,.127E-3,0
HORUS 1,2023-025A,2026-07-13T21:16:43.127328,15.23530001,.0002869,97.3458,268.9196,115.0961,245.0574,0,U,55690,999,18811,.1399E-3,.3272E-4,0
HORUS 2,2023-032A,2026-07-13T20:33:04.464288,15.23336058,.0000992,97.3530,269.7206,134.4176,225.7142,0,U,55844,999,18554,.13592E-3,.3158E-4,0
GLOBAL-19,2023-041B,2026-07-13T00:05:06.750240,15.38645913,.00093255,42.0024,51.2695,204.1950,155.8453,0,U,55982,999,18590,.25300389E-3,.9634E-4,0
ION SCV-010,2023-054Q,2026-07-13T17:04:49.522656,15.26416574,.0014553,97.3749,83.8738,108.9012,251.3806,0,U,56192,999,18024,.10862E-3,.2762E-4,0
TELEOS-2,2023-057C,2026-07-13T02:00:06.410592,14.96416588,.00009414,9.9892,15.6203,275.2393,84.7713,0,U,56310,999,17668,.22341609E-3,.3291E-4,0
